MEAN_MOTION;ECCENTRICITY;INCLINATION;RA_OF_ASC_NODE;ARG_OF_PERICENTER;MEAN_ANOMALY;BSTAR;MEAN_MOTION_DOT;MEAN_MOTION_DDOT;TYPE
11.25655911;0.0013155;51.9437;17.038;20.9084;11.9456;0.0005993;-4.8E-7;0;Globalstar
11.2565596;0.0013173;51.9438;14.5448;22.7592;21.6492;0.00048333;-5.2E-7;0;Globalstar
11.25655997;0.0013185;51.9438;12.2664;24.4184;18.1661;0.0004351;-5.4E-7;0;Globalstar
11.25656021;0.0013193;51.9438;11.1669;25.2332;127.5335;0.0005051;-5.1E-7;0;Globalstar
11.25656055;0.0013198;51.9438;9.9707;26.1017;44.8478;0.00059054;-4.8E-7;0;Globalstar
11.2565608;0.0013207;51.9438;9.0845;26.7498;143.8378;0.0007049;-4.5E-7;0;Globalstar
11.25656106;0.0013211;51.9438;7.9298;27.5788;349.0355;0.00077087;-4.2E-7;0;Globalstar
11.25656147;0.0013241;51.9438;5.4276;29.4255;14.3381;0.00085814;-3.9E-7;0;Globalstar
11.25656236;0.0013263;51.9438;4.317;30.29;142.8722;0.0010936;-3.2E-7;0;Globalstar
11.25656345;0.0013291;51.9437;0.4331;33.1616;47.3659;0.0010989;-3.1E-7;0;Globalstar
11.25656453;0.0013297;51.9437;358.1545;34.8635;44.3101;0.0012445;-2.6E-7;0;Globalstar
11.25656491;0.0013302;51.9437;357.2828;35.5009;118.0762;0.0012925;-2.5E-7;0;Globalstar
11.25656624;0.0013328;51.9437;353.5976;38.2114;37.7905;0.0012774;-2.5E-7;0;Globalstar
11.25656751;0.0013347;51.9436;351.1092;40.0193;39.3133;0.0012752;-2.5E-7;0;Globalstar
11.2565677;0.0013352;51.9436;350.6537;40.3558;110.3498;0.0012728;-2.5E-7;0;Globalstar
11.25656832;0.0013361;51.9435;348.8285;41.6829;40.0826;0.0010716;-3.2E-7;0;Globalstar
11.2565687;0.0013365;51.9434;348.3627;42.0264;128.8607;0.00112;-3.1E-7;0;Globalstar
11.25656936;0.0013363;51.9434;346.5496;43.3899;37.4242;0.00097298;-3.6E-7;0;Globalstar
11.25656989;0.0013371;51.9433;345.8761;43.8974;126.9504;0.0010439;-3.3E-7;0;Globalstar
11.25657046;0.0013378;51.9432;344.2712;45.0672;33.9831;0.00097135;-3.6E-7;0;Globalstar
11.25657218;0.0013396;51.943;341.7791;46.9024;41.6803;0.0012706;-2.6E-7;0;Globalstar
11.25657356;0.0013415;51.9429;339.714;48.4237;27.8277;0.0014593;-1.9E-7;0;Globalstar
11.25657407;0.0013422;51.9428;338.8437;49.0444;99.3315;0.0015439;-1.6E-7;0;Globalstar
11.25657491;0.0013431;51.9428;337.2248;50.2262;30.4805;0.0016051;-1.4E-7;0;Globalstar
11.25657626;0.001344;51.9426;334.9447;51.905;29.8713;0.0017283;-1.0E-7;0;Globalstar
11.25657781;0.0013458;51.9425;332.4496;53.7484;42.5405;0.0016537;-1.3E-7;0;Globalstar
11.25657938;0.0013465;51.9423;330.1715;55.423;38.453;0.0015948;-1.5E-7;0;Globalstar
11.25657967;0.0013468;51.9423;329.9327;55.5908;93.1865;0.0016263;-1.4E-7;0;Globalstar
11.25658085;0.0013476;51.9421;327.8938;57.1036;33.5586;0.0015157;-1.7E-7;0;Globalstar
11.25658145;0.0013476;51.9421;327.4336;57.4735;112.6075;0.0015866;-1.5E-7;0;Globalstar
11.25658153;0.0013478;51.9421;327.2364;57.6296;94.9629;0.0015328;-1.7E-7;0;Globalstar
11.25658286;0.0013489;51.9419;325.6171;58.8472;26.9538;0.0015902;-1.5E-7;0;Globalstar
11.25658455;0.00135;51.9418;323.1207;60.6727;41.8964;0.001539;-1.7E-7;0;Globalstar
11.25658603;0.001351;51.9416;320.8428;62.3428;37.3779;0.0013913;-2.2E-7;0;Globalstar
11.256587;0.0013519;51.9414;318.5647;64.025;33.2875;0.0011204;-3.1E-7;0;Globalstar
11.25658807;0.0013524;51.9411;316.2863;65.69;29.2841;0.0010334;-3.4E-7;0;Globalstar
11.25658982;0.0013521;51.9408;313.773;67.6005;73.2557;0.001213;-2.8E-7;0;Globalstar
11.25659118;0.0013526;51.9406;311.7316;69.1375;17.733;0.0014179;-2.1E-7;0;Globalstar
11.25659266;0.0013531;51.9404;309.2348;70.9996;32.8622;0.0016595;-1.3E-7;0;Globalstar
11.25659401;0.0013532;51.9402;306.9566;72.7077;28.2412;0.0017414;-1.0E-7;0;Globalstar
11.25659431;0.0013534;51.9402;306.7463;72.8747;33.4751;0.0017949;-8.0E-8;0;Globalstar
11.25659514;0.0013534;51.9401;304.6783;74.3892;24.151;0.0016243;-1.4E-7;0;Globalstar
11.25659641;0.0013536;51.9399;302.1621;76.2754;72.8518;0.0014919;-1.8E-7;0;Globalstar
11.2565977;0.0013533;51.94;299.883;78.1676;70.0689;0.0012293;-2.7E-7;0;Globalstar
11.25659818;0.0013531;51.9398;297.8445;79.5633;9.3373;0.0010705;-3.2E-7;0;Globalstar
11.25659843;0.001353;51.9397;296.2268;80.7682;298.1551;0.00087971;-3.9E-7;0;Globalstar
11.25659868;0.0013528;51.9397;295.3482;81.4244;23.6631;0.00083737;-4.0E-7;0;Globalstar
11.25659915;0.0013522;51.9396;292.836;83.3332;65.5562;0.00064114;-4.7E-7;0;Globalstar
11.25659933;0.0013512;51.9395;290.5813;85.0515;20.5342;0.00041858;-5.4E-7;0;Globalstar
11.25659927;0.0013504;51.9394;288.5137;86.6043;10.4514;0.00026916;-5.9E-7;0;Globalstar
11.25659939;0.0013501;51.9394;286.8881;87.7996;313.0399;0.00026462;-5.9E-7;0;Globalstar
11.25659899;0.0013508;51.9394;286.6422;87.9023;20.1809;0.00019344;-6.2E-7;0;Globalstar
11.25659886;0.0013507;51.9394;286.0009;88.3813;53.641;0.00018401;-6.2E-7;0;Globalstar
11.25659888;0.0013494;51.9394;283.9385;89.9726;34.3915;0.00026853;-5.9E-7;0;Globalstar
11.25659859;0.0013486;51.9394;281.4616;91.8034;15.0392;0.00035808;-5.6E-7;0;Globalstar
11.25659797;0.0013459;51.9395;278.9744;93.6486;14.0334;-0.00026279;-7.7E-7;0;Globalstar
11.25659766;0.0013443;51.9396;276.6963;95.3789;9.6223;-0.00036357;-8.0E-7;0;Globalstar
11.25659686;0.001343;51.9396;274.2066;97.2416;12.5804;-0.00055093;-8.7E-7;0;Globalstar
11.25659546;0.0013415;51.9396;271.9221;98.9657;19.237;-0.00091592;-9.9E-7;0;Globalstar
11.25659423;0.0013406;51.9396;270.071;100.3619;353.3956;-0.0010745;-1.04E-6;0;Globalstar
11.25659373;0.0013393;51.9397;267.3405;102.3602;54.4995;-0.0010529;-1.04E-6;0;Globalstar
11.25659294;0.0013383;51.9397;265.518;103.7007;339.2236;-0.0010936;-1.05E-6;0;Globalstar
11.25659276;0.0013383;51.9397;265.2752;103.8764;40.8839;-0.0011304;-1.06E-6;0;Globalstar
11.25659201;0.0013367;51.9397;263.2199;105.4326;9.5736;-0.0011676;-1.07E-6;0;Globalstar
11.25659194;0.0013366;51.9397;262.5642;105.9245;67.9973;-0.0011241;-1.06E-6;0;Globalstar
11.25659092;0.0013351;51.9397;260.9589;107.1336;335.5149;-0.0012168;-1.09E-6;0;Globalstar
11.25659047;0.0013346;51.9397;260.3004;107.6487;38.8288;-0.0012479;-1.1E-6;0;Globalstar
11.2565893;0.0013329;51.9397;258.0366;109.3693;9.7652;-0.001291;-1.12E-6;0;Globalstar
11.25658829;0.0013317;51.9397;256.401;110.5878;329.6898;-0.00138;-1.15E-6;0;Globalstar
11.25658782;0.0013314;51.9397;255.7587;111.0714;5.0356;-0.0013955;-1.15E-6;0;Globalstar
11.25658622;0.0013296;51.9397;253.4479;112.7963;57.5255;-0.0014612;-1.17E-6;0;Globalstar
11.25658362;0.0013263;51.9397;249.1353;116.0391;346.3824;-0.0014297;-1.16E-6;0;Globalstar
11.25658244;0.0013247;51.9397;247.0615;117.5801;347.2046;-0.0013761;-1.14E-6;0;Globalstar
11.25658143;0.0013237;51.9397;246.4164;118.0818;27.3155;-0.00142;-1.16E-6;0;Globalstar
11.25658018;0.0013221;51.9397;244.5793;119.4647;337.4305;-0.0014886;-1.18E-6;0;Globalstar
11.25657998;0.0013215;51.9397;244.1505;119.7726;2.1864;-0.0014805;-1.18E-6;0;Globalstar
11.25657896;0.0013201;51.9397;242.301;121.1596;333.6817;-0.001355;-1.14E-6;0;Globalstar
11.25657836;0.0013194;51.9397;241.8737;121.4759;355.6384;-0.0014341;-1.16E-6;0;Globalstar
11.25657657;0.0013171;51.9397;239.3668;123.3552;28.7355;-0.0013944;-1.15E-6;0;Globalstar
11.25657521;0.0013156;51.9396;237.5373;124.7117;325.5665;-0.0013735;-1.14E-6;0;Globalstar
11.25657481;0.0013152;51.9396;237.087;125.0445;27.5332;-0.0014075;-1.16E-6;0;Globalstar
11.25657314;0.0013131;51.9396;234.8122;126.7506;17.8032;-0.0014065;-1.15E-6;0;Globalstar
11.25657135;0.0013109;51.9395;232.5325;128.4687;16.3368;-0.0014429;-1.17E-6;0;Globalstar
11.25656997;0.0013082;51.9394;230.2528;130.2411;14.9097;-0.001376;-1.14E-6;0;Globalstar
11.25656829;0.0013058;51.9393;227.9887;131.9317;346.6581;-0.0014061;-1.15E-6;0;Globalstar
11.25656598;0.0013032;51.9392;225.482;133.8314;19.5136;-0.0015341;-1.2E-6;0;Globalstar
11.25656478;0.0013013;51.9391;223.6527;135.2155;315.9578;-0.0014339;-1.16E-6;0;Globalstar
11.25656446;0.0013008;51.9391;223.2045;135.5447;14.271;-0.0014171;-1.16E-6;0;Globalstar
11.25656276;0.0012983;51.939;220.9276;137.2818;8.1266;-0.0014227;-1.16E-6;0;Globalstar
11.25656122;0.0012963;51.9389;219.098;138.675;305.0552;-0.0014489;-1.17E-6;0;Globalstar
11.25656097;0.0012958;51.9389;218.6487;139.0019;5.2431;-0.0013718;-1.14E-6;0;Globalstar
11.25655949;0.0012933;51.9388;216.3676;140.732;6.2636;-0.0013427;-1.13E-6;0;Globalstar
11.25655815;0.0012905;51.9386;214.0745;142.4733;28.0321;-0.0012075;-1.09E-6;0;Globalstar
11.2565568;0.001288;51.9385;211.8001;144.2078;17.2728;-0.0011901;-1.08E-6;0;Globalstar
11.25655575;0.0012854;51.9384;209.3198;146.0983;4.2902;-0.0010508;-1.04E-6;0;Globalstar
11.25655522;0.0012835;51.9383;207.48;147.4931;318.8861;-0.00097367;-1.01E-6;0;Globalstar
11.25655512;0.0012828;51.9382;207.0424;147.8203;358.7732;-0.00090637;-9.9E-7;0;Globalstar
11.25655399;0.0012801;51.9381;204.7642;149.545;354.6358;-0.00091595;-9.9E-7;0;Globalstar
11.25655372;0.0012774;51.9379;202.4838;151.2791;354.5102;-0.00071964;-9.2E-7;0;Globalstar
11.25655296;0.0012751;51.9378;200.2184;152.9866;328.0825;-0.00073495;-9.3E-7;0;Globalstar
11.25655346;0.0012729;51.9377;198.3673;154.3929;302.3945;-0.00037148;-8.1E-7;0;Globalstar
11.25655287;0.0012693;51.9375;195.4345;156.5972;354.9657;-0.0003673;-8.1E-7;0;Globalstar
11.2565531;0.0012666;51.9374;193.1567;158.3018;350.0204;-0.0001113;-7.2E-7;0;Globalstar
11.25655354;0.0012638;51.9373;190.8793;160.0048;344.4856;0.0001654;-6.3E-7;0;Globalstar
11.25655443;0.0012606;51.937;188.5998;161.8149;342.9346;0.00058421;-4.9E-7;0;Globalstar
11.25655454;0.0012584;51.9369;186.5114;163.3832;9.2312;0.00021892;-6.1E-7;0;Globalstar
11.25655432;0.0012553;51.9367;184.0554;165.2072;313.6926;-0.00025967;-7.7E-7;0;Globalstar
11.25655432;0.0012531;51.9366;182.2173;166.5773;265.3185;-0.0003829;-8.1E-7;0;Globalstar
11.25655428;0.0012524;51.9366;181.778;166.8985;308.1389;-0.00040016;-8.2E-7;0;Globalstar
11.25655451;0.0012496;51.9365;179.5002;168.5876;303.0227;-0.00022613;-7.6E-7;0;Globalstar
11.25655438;0.0012466;51.9364;177.1965;170.2715;342.8977;-0.00010819;-7.2E-7;0;Globalstar
11.25655448;0.0012443;51.9363;174.9186;171.9406;337.8689;0.00011928;-6.4E-7;0;Globalstar
11.25655461;0.0012427;51.9362;172.6407;173.6157;333.129;0.00031986;-5.7E-7;0;Globalstar
